     2.10           G: GLONASS NAV DATA                     RINEX VERSION / TYPE
teqc  2016Nov7      Administrateur RGP  20180121 22:03:52UTCPGM / RUN BY / DATE
    18                                                      LEAP SECONDS
Linux 2.4.21-27.ELsmp|Opteron|gcc|Linux x86_64|=+           COMMENT
  2018     1    21   -9.313225746155D-10                    CORR TO SYSTEM TIME
                                                            END OF HEADER
24 18  1 21 20 45  0.0-1.613991335034D-04-0.000000000000D+00 7.557000000000D+04
   -1.415062988281D+03-3.021905899048D+00 0.000000000000D+00 0.000000000000D+00
    1.117201611328D+04 8.527851104736D-01 2.793967723846D-09 2.000000000000D+00
    2.287089404297D+04-6.017370223999D-01-9.313225746155D-10 0.000000000000D+00
 8 18  1 21 20 45  0.0-2.699159085751D-05 0.000000000000D+00 7.557000000000D+04
   -1.219638916016D+04 7.901439666748D-01 9.313225746155D-10 0.000000000000D+00
    5.956154785156D+03-2.844080924988D+00 1.862645149231D-09 6.000000000000D+00
    2.164143212891D+04 1.230409622192D+00-1.862645149231D-09 0.000000000000D+00
18 18  1 21 20 45  0.0 1.819198951125D-04 9.094947017729D-13 7.557000000000D+04
    2.455002246094D+04-7.757263183594D-01-9.313225746155D-10 0.000000000000D+00
   -4.071997558594D+03-2.870559692383D-04-0.000000000000D+00-3.000000000000D+00
    5.473786621094D+03 3.496881484985D+00-0.000000000000D+00 0.000000000000D+00
17 18  1 21 20 45  0.0 1.028785482049D-04 2.728484105319D-12 7.557000000000D+04
    1.589062255859D+04-2.583033561707D+00-0.000000000000D+00 0.000000000000D+00
    4.993597656250D+03 5.836629867554D-01 1.862645149231D-09 4.000000000000D+00
    1.934642919922D+04 1.969267845154D+00-9.313225746155D-10 0.000000000000D+00
 9 18  1 21 20 45  0.0 4.759151488543D-05 0.000000000000D+00 7.557000000000D+04
   -8.896706542969D+03 1.321393966675D+00 9.313225746155D-10 0.000000000000D+00
   -1.896241650391D+04 1.500142097473D+00-1.862645149231D-09-2.000000000000D+00
    1.461544384766D+04 2.747575759888D+00-2.793967723846D-09 0.000000000000D+00
16 18  1 21 20 45  0.0 8.377898484468D-05 0.000000000000D+00 7.557000000000D+04
    6.117182128906D+03 2.259067535400D+00-0.000000000000D+00 0.000000000000D+00
   -9.246658203125D+03 2.193025588989D+00-0.000000000000D+00-1.000000000000D+00
    2.294568212891D+04 2.919445037842D-01-2.793967723846D-09 0.000000000000D+00
 7 18  1 21 20 45  0.0-2.807471901178D-05-0.000000000000D+00 7.557000000000D+04
   -7.302723144531D+03 6.638841629028D-01 9.313225746155D-10 0.000000000000D+00
   -1.219731591797D+04-2.819765090942D+00-9.313225746155D-10 5.000000000000D+00
    2.119744042969D+04-1.398563385010D+00-2.793967723846D-09 0.000000000000D+00
19 18  1 21 20 45  0.0-4.207715392113D-05-9.094947017729D-13 7.557000000000D+04
    1.984416210938D+04 1.549767494202D+00-9.313225746155D-10 0.000000000000D+00
   -1.061041503906D+04-5.908832550049D-01-1.862645149231D-09 3.000000000000D+00
   -1.200546923828D+04 3.082011222839D+00 9.313225746155D-10 0.000000000000D+00
14 18  1 21 20 45  0.0 2.402998507023D-05 0.000000000000D+00 7.557000000000D+04
    1.867467871094D+04 3.306121826172D-01-9.313225746155D-10 0.000000000000D+00
    1.723969677734D+04 8.476734161377D-02 2.793967723846D-09-7.000000000000D+00
    2.157005859375D+03-3.560612678528D+00 9.313225746155D-10 0.000000000000D+00
15 18  1 21 20 45  0.0-5.483627319336D-06 0.000000000000D+00 7.557000000000D+04
    1.837188671875D+04 1.636878013611D+00-9.313225746155D-10 0.000000000000D+00
    8.180843750000D+03 1.410798072815D+00 1.862645149231D-09 0.000000000000D+00
    1.576622119141D+04-2.630971908569D+00-0.000000000000D+00 0.000000000000D+00
18 18  1 21 21 15  0.0 1.819217577577D-04 9.094947017729D-13 7.560000000000D+04
    2.245578759766D+04-1.519942283630D+00-9.313225746155D-10 0.000000000000D+00
   -3.704905761719D+03 4.387321472168D-01 0.000000000000D+00-3.000000000000D+00
    1.147434130859D+04 3.127041816711D+00-9.313225746155D-10 0.000000000000D+00
17 18  1 21 21 15  0.0 1.028841361403D-04 2.728484105319D-12 7.560000000000D+04
    1.098859570312D+04-2.813199043274D+00 0.000000000000D+00 0.000000000000D+00
    6.514857421875D+03 1.108193397522D+00 2.793967723846D-09 4.000000000000D+00
    2.209936035156D+04 1.069689750671D+00-9.313225746155D-10 0.000000000000D+00
16 18  1 21 21 15  0.0 8.377991616726D-05 0.000000000000D+00 7.560000000000D+04
    1.044692285156D+04 2.510690689087D+00-0.000000000000D+00 0.000000000000D+00
   -5.615264648438D+03 1.810247421265D+00 9.313225746155D-10-1.000000000000D+00
    2.257559570312D+04-7.001352310181D-01-1.862645149231D-09 0.000000000000D+00
15 18  1 21 21 15  0.0-5.487352609634D-06 0.000000000000D+00 7.560000000000D+04
    2.101572607422D+04 1.255610466003D+00-0.000000000000D+00 0.000000000000D+00
    1.008998535156D+04 7.166042327881D-01 2.793967723846D-09 0.000000000000D+00
    1.048525488281D+04-3.198813438416D+00-0.000000000000D+00 0.000000000000D+00
24 18  1 21 21 15  0.0-1.614009961486D-04-0.000000000000D+00 7.560000000000D+04
   -6.526548828125D+03-2.613865852356D+00 9.313225746155D-10 0.000000000000D+00
    1.303776660156D+04 1.191884040833D+00 2.793967723846D-09 2.000000000000D+00
    2.091634326172D+04-1.555809974670D+00-9.313225746155D-10 0.000000000000D+00
 8 18  1 21 21 15  0.0-2.699065953493D-05 0.000000000000D+00 7.560000000000D+04
   -1.111820019531D+04 3.900566101074D-01 9.313225746155D-10 0.000000000000D+00
    5.531220703125D+02-3.111536026001D+00 9.313225746155D-10 6.000000000000D+00
    2.299496533203D+04 2.638444900513D-01-1.862645149231D-09 0.000000000000D+00
 7 18  1 21 21 15  0.0-2.807192504406D-05-0.000000000000D+00 7.560000000000D+04
   -6.538709960938D+03 1.974802017212D-01 0.000000000000D+00 0.000000000000D+00
   -1.697313085938D+04-2.439325332642D+00-1.862645149231D-09 5.000000000000D+00
    1.789434814453D+04-2.247881889343D+00-2.793967723846D-09 0.000000000000D+00
14 18  1 21 21 15  0.0 2.402998507023D-05 0.000000000000D+00 7.560000000000D+04
    1.867158740234D+04-3.593750000000D-01-0.000000000000D+00 0.000000000000D+00
    1.684433300781D+04-4.915962219238D-01 2.793967723846D-09-7.000000000000D+00
   -4.252672851562D+03-3.514980316162D+00 1.862645149231D-09 0.000000000000D+00
 9 18  1 21 21 15  0.0 4.759151488543D-05 0.000000000000D+00 7.560000000000D+04
   -5.905283691406D+03 1.992341995239D+00 0.000000000000D+00 0.000000000000D+00
   -1.608490527344D+04 1.651597023010D+00-1.862645149231D-09-2.000000000000D+00
    1.893447607422D+04 2.020251274109D+00-2.793967723846D-09 0.000000000000D+00
19 18  1 21 21 15  0.0-4.207901656628D-05-9.094947017729D-13 7.560000000000D+04
    2.186956054688D+04 6.927967071533D-01-1.862645149231D-09 0.000000000000D+00
   -1.164140283203D+04-5.112552642822D-01-9.313225746155D-10 3.000000000000D+00
   -6.065240234375D+03 3.475359916687D+00 0.000000000000D+00 0.000000000000D+00
 1 18  1 21 21 15  0.0 2.098083496094D-05 0.000000000000D+00 7.656000000000D+04
   -9.780423828125D+03 3.358612060547D-01 9.313225746155D-10 0.000000000000D+00
    1.696966943359D+04-2.213236808777D+00 2.793967723846D-09 1.000000000000D+00
    1.632798437500D+04 2.501928329468D+00-9.313225746155D-10 0.000000000000D+00
18 18  1 21 21 45  0.0 1.819236204028D-04 9.094947017729D-13 7.740000000000D+04
    1.921569921875D+04-2.036320686340D+00-0.000000000000D+00 0.000000000000D+00
   -2.408251464844D+03 1.017326354980D+00 9.313225746155D-10-3.000000000000D+00
    1.658567675781D+04 2.515398025513D+00-9.313225746155D-10 0.000000000000D+00
16 18  1 21 21 45  0.0 8.378177881241D-05 9.094947017729D-13 7.740000000000D+04
    1.499217773438D+04 2.491261482239D+00-0.000000000000D+00 0.000000000000D+00
   -2.814750976562D+03 1.286493301392D+00 9.313225746155D-10-1.000000000000D+00
    2.045898437500D+04-1.636067390442D+00-9.313225746155D-10 0.000000000000D+00
17 18  1 21 21 45  0.0 1.028897240758D-04 2.728484105319D-12 7.740000000000D+04
    5.945413085938D+03-2.741100311279D+00 9.313225746155D-10 0.000000000000D+00
    8.955262695312D+03 1.586496353149D+00 2.793967723846D-09 4.000000000000D+00
    2.314745605469D+04 8.723640441895D-02-9.313225746155D-10 0.000000000000D+00
15 18  1 21 21 45  0.0-5.487352609634D-06 0.000000000000D+00 7.740000000000D+04
    2.274340234375D+04 6.279430389404D-01-0.000000000000D+00 0.000000000000D+00
    1.081520800781D+04 1.127281188965D-01 2.793967723846D-09 0.000000000000D+00
    4.398510742188D+03-3.520583152771D+00 0.000000000000D+00 0.000000000000D+00
 9 18  1 21 21 45  0.0 4.759151488543D-05-0.000000000000D+00 7.740000000000D+04
   -1.793349609375D+03 2.548648834229D+00 0.000000000000D+00 0.000000000000D+00
   -1.317434521484D+04 1.541717529297D+00-9.313225746155D-10-2.000000000000D+00
    2.179443652344D+04 1.136812210083D+00-2.793967723846D-09 0.000000000000D+00
19 18  1 21 21 45  0.0-4.208181053400D-05-9.094947017729D-13 7.740000000000D+04
    2.234605322266D+04-1.513023376465D-01-1.862645149231D-09 0.000000000000D+00
   -1.229668505859D+04-1.761178970337D-01-0.000000000000D+00 3.000000000000D+00
    3.441079101562D+02 3.599879264832D+00-0.000000000000D+00 0.000000000000D+00
24 18  1 21 21 45  0.0-1.614019274712D-04-0.000000000000D+00 7.740000000000D+04
   -1.069200976562D+04-1.985295295715D+00 1.862645149231D-09 0.000000000000D+00
    1.533668554688D+04 1.321984291077D+00 1.862645149231D-09 2.000000000000D+00
    1.734263232422D+04-2.389111518860D+00-9.313225746155D-10 0.000000000000D+00
 8 18  1 21 21 45  0.0-2.698972821236D-05 0.000000000000D+00 7.740000000000D+04
   -1.082507470703D+04-6.454753875732D-02 9.313225746155D-10 0.000000000000D+00
   -5.064273925781D+03-3.078680992126D+00-0.000000000000D+00 6.000000000000D+00
    2.257911376953D+04-7.229347229004D-01-2.793967723846D-09 0.000000000000D+00
 1 18  1 21 21 45  0.0 2.098176628351D-05 0.000000000000D+00 7.740000000000D+04
   -9.454696289062D+03 2.460479736328D-04 9.313225746155D-10 0.000000000000D+00
    1.245830908203D+04-2.759244918823D+00 1.862645149231D-09 1.000000000000D+00
    2.014142285156D+04 1.707715988159D+00-1.862645149231D-09 0.000000000000D+00
 7 18  1 21 21 45  0.0-2.807378768921D-05-9.094947017729D-13 7.740000000000D+04
   -6.517813964844D+03-1.464214324951D-01-0.000000000000D+00 0.000000000000D+00
   -2.082483593750D+04-1.803467750549D+00-2.793967723846D-09 5.000000000000D+00
    1.320904492188D+04-2.924341201782D+00-2.793967723846D-09 0.000000000000D+00
14 18  1 21 21 45  0.0 2.403091639280D-05 0.000000000000D+00 7.740000000000D+04
    1.731996972656D+04-1.150268554688D+00-0.000000000000D+00 0.000000000000D+00
    1.560584130859D+04-8.428544998169D-01 2.793967723846D-09-7.000000000000D+00
   -1.033329394531D+04-3.197343826294D+00 1.862645149231D-09 0.000000000000D+00
